              M50 Cartesian                         M50 Keplerian  
    -----------------------------------       --------------------------------
     X    =       -3251015.47                 A    =         6777365.89  meter
     Y    =       -2793321.99  meter          E    =           .0021234
     Z    =       -5268387.54                 I    =           51.30176
     XDOT =       4328.285181                 Wp   =           93.10246
     YDOT =      -6276.729545  meter/sec      RA   =          300.62345  deg
     ZDOT =        658.230478                 TA   =          183.21804
                                              MA   =          183.23172
                                              Ha   =            223.342  n.mi
                                              Hp   =            212.014
 
              M50 Cartesian                         J2K Cartesian  
    -----------------------------------       --------------------------------
     X    =      -10666061.27                 X    =        -3193946.44
     Y    =       -9164442.22  feet           Y    =        -2829358.30  meter
     Z    =      -17284736.02                 Z    =        -5284041.48
     XDOT =      14200.410700                 XDOT =        4394.954097
     YDOT =     -20592.944701  feet/sec       YDOT =       -6227.954918  meter/sec
     ZDOT =       2159.548811                 ZDOT =         679.418706
 
              TDR Cartesian                         TDR Cartesian  
    -----------------------------------       --------------------------------
     X    =      -10980734.39                 X    =        -3346927.84
     Y    =       -8649092.47  feet           Y    =        -2636243.38  meter
     Z    =      -17353116.01                 Z    =        -5289229.76
     XDOT =      12551.030368                 XDOT =        3825.554056
     YDOT =     -20448.899945  feet/sec       YDOT =       -6232.824703  meter/sec
     ZDOT =       2253.873340                 ZDOT =         686.980594
  
  
    The mean element set is posted at the UTC for which position is
    just north of the next ascending node relative to the above
    vector time
 
 
    TWO LINE MEAN ELEMENT SET
  
    ISS
    1 25544U 98067A   17115.43159923  .00016717  00000-0  10270-3 0  9176
    2 25544  51.6404 301.2621 0006633  89.0677 271.1236 15.54180949 13543
  
  
    Satellite: ISS
    Catalog Number: 25544
    Epoch time:      17115.43159923   =   yrday.fracday
    Element set:     917
    Inclination:       51.6404  deg
    RA of node:       301.2621  deg
    Eccentricity:     .0006633     
    Arg of perigee:    89.0677  deg
    Mean anomaly:     271.1236  deg
    Mean motion:   15.54180949  rev/day
    Decay rate:    1.67170E-04  rev/day^2
    Epoch rev:            1354
    Checksum:              303
 
 
    Coasting Arc #19 (Orbit 1369)
    ---------------------------------------
 
    Vector Time (GMT): 2017/116/10:00:00.000
    Vector Time (MET): N/A
    Weight (LBS)     : 916737.2
 
              M50 Cartesian                         M50 Keplerian  
    -----------------------------------       --------------------------------
     X    =        2210882.18                 A    =         6779346.32  meter
     Y    =        4255019.92  meter          E    =           .0013399
     Z    =        4782405.04                 I    =           51.29249
     XDOT =      -4841.428997                 Wp   =           75.60496
     YDOT =       5385.639461  meter/sec      RA   =          295.60156  deg
     ZDOT =      -2544.293119                 TA   =           39.58006
                                              MA   =           39.48231
                                              Ha   =            223.222  n.mi
                                              Hp   =            212.149
 
              M50 Cartesian                         J2K Cartesian  
    -----------------------------------       --------------------------------
     X    =        7253550.45                 X    =         2139906.00
     Y    =       13960039.10  feet           Y    =         4279346.87  meter
     Z    =       15690305.26                 Z    =         4792972.48
     XDOT =     -15883.953403                 XDOT =       -4888.933584
     YDOT =      17669.420805  feet/sec       YDOT =        5331.233593  meter/sec
     ZDOT =      -8347.418370                 ZDOT =       -2567.927454
 
              TDR Cartesian                         TDR Cartesian  
    -----------------------------------       --------------------------------
     X    =        8045495.95                 X    =         2452267.16
     Y    =       13465846.58  feet           Y    =         4104390.04  meter
     Z    =       15736052.10                 Z    =         4796348.68
     XDOT =     -13662.489920                 XDOT =       -4164.326928
     YDOT =      18075.742609  feet/sec       YDOT =        5509.486347  meter/sec
     ZDOT =      -8452.340090                 ZDOT =       -2576.273259
  
  
    The mean element set is posted at the UTC for which position is
    just north of the next ascending node relative to the above
    vector time
 
 
    TWO LINE MEAN ELEMENT SET
  
    ISS
    1 25544U 98067A   17116.46040348  .00016717  00000-0  10270-3 0  9181
    2 25544  51.6401 296.1334 0006570  92.6710 267.5195 15.54196968 13700
  
  
    Satellite: ISS
    Catalog Number: 25544
    Epoch time:      17116.46040348   =   yrday.fracday
    Element set:     918
    Inclination:       51.6401  deg
    RA of node:       296.1334  deg
    Eccentricity:     .0006570     
    Arg of perigee:    92.6710  deg
    Mean anomaly:     267.5195  deg
    Mean motion:   15.54196968  rev/day
    Decay rate:    1.67170E-04  rev/day^2
    Epoch rev:            1370
    Checksum:              315
 
 
    Coasting Arc #20 (Orbit 1381)
    ---------------------------------------
 
    Vector Time (GMT): 2017/117/05:11:53.282
    Vector Time (MET): N/A
    Weight (LBS)     : 916516.6
 
              M50 Cartesian                         M50 Keplerian  
    -----------------------------------       --------------------------------
     X    =       -3781349.16                 A    =         6778444.64  meter
     Y    =       -1967149.39  meter          E    =           .0019801
     Z    =       -5287832.77                 I    =           51.27558
     XDOT =       3098.761105                 Wp   =           93.86697
     YDOT =      -6987.304767  meter/sec      RA   =          291.61159  deg
     ZDOT =        383.378490                 TA   =          179.81486
                                              MA   =          179.81412
                                              Ha   =            223.385  n.mi
                                              Hp   =            213.233
 
              M50 Cartesian                         J2K Cartesian  
    -----------------------------------       --------------------------------
     X    =      -12406001.17                 X    =        -3733384.63
     Y    =       -6453902.19  feet           Y    =        -2009166.94  meter
     Z    =      -17348532.72                 Z    =        -5306085.28
     XDOT =      10166.539059                 XDOT =        3174.802355
     YDOT =     -22924.228239  feet/sec       YDOT =       -6952.227141  meter/sec
     ZDOT =       1257.803446                 ZDOT =         398.616549
 
              TDR Cartesian                         TDR Cartesian  
    -----------------------------------       --------------------------------
     X    =        1260832.20                 X    =          384301.66
     Y    =      -13827194.21  feet           Y    =        -4214528.80  meter
     Z    =      -17428491.28                 Z    =        -5312204.14
     XDOT =      24058.125008                 XDOT =        7332.916502
     YDOT =        522.045728  feet/sec       YDOT =         159.119538  meter/sec
     ZDOT =       1326.061082                 ZDOT =         404.183418
  
  
    The mean element set is posted at the UTC for which position is
    just north of the next ascending node relative to the above
    vector time
 
 
    TWO LINE MEAN ELEMENT SET
  
    ISS
    1 25544U 98067A   17117.23200830  .00016717  00000-0  10270-3 0  9192
    2 25544  51.6410 292.2871 0005022  96.7880 263.3844 15.53775132 13820
  
  
    Satellite: ISS
    Catalog Number: 25544
    Epoch time:      17117.23200830   =   yrday.fracday
    Element set:     919
    Inclination:       51.6410  deg
    RA of node:       292.2871  deg
    Eccentricity:     .0005022     
    Arg of perigee:    96.7880  deg
    Mean anomaly:     263.3844  deg
    Mean motion:   15.53775132  rev/day
    Decay rate:    1.67170E-04  rev/day^2
    Epoch rev:            1382
    Checksum:              296
 
             </PRE>
           </TD>
        </TR>
    </TABLE>
    
    <table align="center" border="0" width="600" cellpadding="0" cellspacing="0">
      <tr>
        <td align="center" valign="top"><hr size="1" width="600" noshade="noshade" />
        <font face="Arial,helvetica" size="-2">Curator: <a href="/cgi-bin/comment.cgi?jsc-hsfwebma@mail.nasa.gov">Kim 
          Dismukes</a> | Responsible NASA Official: <a href="/cgi-bin/comment.cgi?jsc-hsfwebma@mail.nasa.gov">Amiko Kauderer</a> | Updated: 06/08/2009<br />
        <a href="http://www.nasa.gov/about/highlights/HP_Privacy.html">Privacy Policy and Important Notices</a></font></td>
      </tr>
    </table>
    </body>
    </html>
